{
    "links": {
        "self": "http://www.neowsapp.com/rest/v1/neo/3824079?api_key=iIulBulltgU6a56xZRHN4H3l9WmuAYTsLGpBGhQ2"
    },
    "id": "3824079",
    "neo_reference_id": "3824079",
    "name": "(2018 JX1)",
    "designation": "2018 JX1",
    "nasa_jpl_url": "http://ssd.jpl.nasa.gov/sbdb.cgi?sstr=3824079",
    "absolute_magnitude_h": 26.5,
    "estimated_diameter": {
        "kilometers": {
            "estimated_diameter_min": 0.0133215567,
            "estimated_diameter_max": 0.0297879063
        },
        "meters": {
            "estimated_diameter_min": 13.3215566698,
            "estimated_diameter_max": 29.7879062798
        },
        "miles": {
            "estimated_diameter_min": 0.008277629,
            "estimated_diameter_max": 0.0185093411
        },
        "feet": {
            "estimated_diameter_min": 43.7058959846,
            "estimated_diameter_max": 97.7293544391
        }
    },
    "is_potentially_hazardous_asteroid": false,
    "close_approach_data": [
        {
            "close_approach_date": "2018-05-15",
            "close_approach_date_full": "2018-May-15 09:15",
            "epoch_date_close_approach": 1526375700000,
            "relative_velocity": {
                "kilometers_per_second": "7.7092378113",
                "kilometers_per_hour": "27753.2561206928",
                "miles_per_hour": "17244.7940601049"
            },
            "miss_distance": {
                "astronomical": "0.0239865756",
                "lunar": "9.3307779084",
                "kilometers": "3588340.618353972",
                "miles": "2229691.4680779336"
            },
            "orbiting_body": "Earth"
        },
        {
            "close_approach_date": "2133-07-11",
            "close_approach_date_full": "2133-Jul-11 19:18",
            "epoch_date_close_approach": 5160395880000,
            "relative_velocity": {
                "kilometers_per_second": "17.3687877293",
                "kilometers_per_hour": "62527.6358254105",
                "miles_per_hour": "38852.241271628"
            },
            "miss_distance": {
                "astronomical": "0.430682229",
                "lunar": "167.535387081",
                "kilometers": "64429144.10525223",
                "miles": "40034413.726571574"
            },
            "orbiting_body": "Earth"
        }
    ],
    "orbital_data": {
        "orbit_id": "2",
        "orbit_determination_date": "2018-05-14 06:26:17",
        "first_observation_date": "2018-05-08",
        "last_observation_date": "2018-05-14",
        "data_arc_in_days": 6,
        "observations_used": 30,
        "orbit_uncertainty": "8",
        "minimum_orbit_intersection": ".0235886",
        "jupiter_tisserand_invariant": "4.131",
        "epoch_osculation": "2458249.5",
        "eccentricity": ".3840038231422951",
        "semi_major_axis": "1.678669472650379",
        "inclination": "10.43768423093332",
        "ascending_node_longitude": "53.98683996320645",
        "orbital_period": "794.4127684231916",
        "perihelion_distance": "1.034053977360373",
        "perihelion_argument": "183.8923340893849",
        "aphelion_distance": "2.323284967940384",
        "perihelion_time": "2458256.989752274349",
        "mean_anomaly": "356.605906997042",
        "mean_motion": ".4531649217000304",
        "equinox": "J2000",
        "orbit_class": {
            "orbit_class_type": "AMO",
            "orbit_class_description": "Near-Earth asteroid orbits similar to that of 1221 Amor",
            "orbit_class_range": "1.017 AU < q (perihelion) < 1.3 AU"
        }
    },
    "is_sentry_object": false
}